ONEWEB-0564             
1 55801U 23029F   25306.47033961  .00000072  00000+0  14550-3 0  9990
2 55801  87.9185 319.6889 0001482  87.9289 272.2014 13.20771642131221
ONEWEB-0638             
1 55802U 23029G   25307.77994875  .00000017  00000+0  10767-4 0  9991
2 55802  87.9002 334.6774 0001479 105.2412 254.8881 13.14500674129782
ONEWEB-0639             
1 55803U 23029H   25307.55278174  .00000076  00000+0  15732-3 0  9996
2 55803  87.9227 349.8788 0002868 110.2764 249.8678 13.19725761129143
ONEWEB-0640             
1 55804U 23029J   25307.78945903 -.00000112  00000+0 -33531-3 0  9993
2 55804  87.9004 334.6612 0001775 119.7394 240.3913 13.14504206129809
ONEWEB-0641             
1 55805U 23029K   25307.54803762  .00000064  00000+0  12636-3 0  9991
2 55805  87.9239 349.8568 0002110  99.8316 260.3055 13.19725948129154
ONEWEB-0642             
1 55806U 23029L   25307.54330157  .00000062  00000+0  12266-3 0  9992
2 55806  87.9225 349.8850 0002779 103.3809 256.7633 13.19725756129140
ONEWEB-0643             
1 55807U 23029M   25307.53097455  .00000356  00000+0  92689-3 0  9996
2 55807  87.9007 334.6976 0002617  94.4761 265.6668 13.14505339129749
ONEWEB-0644             
1 55808U 23029N   25307.53856013 -.00000018  00000+0 -78245-4 0  9990
2 55808  87.9232 349.8951 0002380 101.1718 258.9683 13.19725816129141
ONEWEB-0645             
1 55809U 23029P   25307.54528850  .00000027  00000+0  35202-4 0  9991
2 55809  87.9222 349.8818 0002173 110.9969 249.1395 13.18131016129143
ONEWEB-0646             
1 55810U 23029Q   25306.36496675  .00000118  00000+0  26274-3 0  9990
2 55810  87.9232 350.1124 0002232  99.6293 260.5092 13.19722941128975
ONEWEB-0648             
1 55811U 23029R   25307.80374172 -.00000182  00000+0 -52408-3 0  9999
2 55811  87.8999 334.6061 0002621 112.3732 247.7676 13.14501861129781
ONEWEB-0649             
1 55812U 23029S   25307.52750775  .00000048  00000+0  88137-4 0  9994
2 55812  87.9235 349.8759 0002252 105.9078 254.2303 13.19726023129165
ONEWEB-0650             
1 55813U 23029T   25306.38551167  .00000060  00000+0  11631-3 0  9990
2 55813  87.9228 350.1112 0002077  99.1932 260.9435 13.19727230128984
ONEWEB-0652             
1 55814U 23029U   25306.49070613 -.00000169  00000+0 -48917-3 0  9994
2 55814  87.9006 334.8881 0001730  90.3861 269.7467 13.14504346129585
ONEWEB-0653             
1 55815U 23029V   25307.54051652  .00000103  00000+0  24340-3 0  9994
2 55815  87.9007 334.6691 0001700  99.2487 260.8835 13.14501869129750
ONEWEB-0654             
1 55816U 23029W   25306.47008795  .00000196  00000+0  49320-3 0  9993
2 55816  87.9004 334.8812 0001530  87.7632 272.3673 13.14504994129637
ONEWEB-0656             
1 55817U 23029X   25306.46402478  .00000046  00000+0  80878-4 0  9997
2 55817  87.9195 319.6432 0001507  83.0897 277.0407 13.20771884131220
