[{"OBJECT_NAME":"ONEWEB-0564","OBJECT_ID":"2023-029F","EPOCH":"2025-11-02T11:17:17.342304","MEAN_MOTION":13.20771642,"ECCENTRICITY":0.0001482,"INCLINATION":87.9185,"RA_OF_ASC_NODE":319.6889,"ARG_OF_PERICENTER":87.9289,"MEAN_ANOMALY":272.2014,"EPHEMERIS_TYPE":0,"CLASSIFICATION_TYPE":"U","NORAD_CAT_ID":55801,"ELEMENT_SET_NO":999,"REV_AT_EPOCH":13122,"BSTAR":0.0001455,"MEAN_MOTION_DOT":7.2e-7,"MEAN_MOTION_DDOT":0},{"OBJECT_NAME":"ONEWEB-0638","OBJECT_ID":"2023-029G","EPOCH":"2025-11-03T18:43:07.572000","MEAN_MOTION":13.14500674,"ECCENTRICITY":0.0001479,"INCLINATION":87.9002,"RA_OF_ASC_NODE":334.6774,"ARG_OF_PERICENTER":105.2412,"MEAN_ANOMALY":254.8881,"EPHEMERIS_TYPE":0,"CLASSIFICATION_TYPE":"U","NORAD_CAT_ID":55802,"ELEMENT_SET_NO":999,"REV_AT_EPOCH":12978,"BSTAR":1.0767e-5,"MEAN_MOTION_DOT":1.7e-7,"MEAN_MOTION_DDOT":0},{"OBJECT_NAME":"ONEWEB-0639","OBJECT_ID":"2023-029H","EPOCH":"2025-11-03T13:16:00.342336","MEAN_MOTION":13.19725761,"ECCENTRICITY":0.0002868,"INCLINATION":87.9227,"RA_OF_ASC_NODE":349.8788,"ARG_OF_PERICENTER":110.2764,"MEAN_ANOMALY":249.8678,"EPHEMERIS_TYPE":0,"CLASSIFICATION_TYPE":"U","NORAD_CAT_ID":55803,"ELEMENT_SET_NO":999,"REV_AT_EPOCH":12914,"BSTAR":0.00015732,"MEAN_MOTION_DOT":7.6e-7,"MEAN_MOTION_DDOT":0},{"OBJECT_NAME":"ONEWEB-0640","OBJECT_ID":"2023-029J","EPOCH":"2025-11-03T18:56:49.260192","MEAN_MOTION":13.14504206,"ECCENTRICITY":0.0001775,"INCLINATION":87.9004,"RA_OF_ASC_NODE":334.6612,"ARG_OF_PERICENTER":119.7394,"MEAN_ANOMALY":240.3913,"EPHEMERIS_TYPE":0,"CLASSIFICATION_TYPE":"U","NORAD_CAT_ID":55804,"ELEMENT_SET_NO":999,"REV_AT_EPOCH":12980,"BSTAR":-0.00033531,"MEAN_MOTION_DOT":-1.12e-6,"MEAN_MOTION_DDOT":0},{"OBJECT_NAME":"ONEWEB-0641","OBJECT_ID":"2023-029K","EPOCH":"2025-11-03T13:09:10.450368","MEAN_MOTION":13.19725948,"ECCENTRICITY":0.000211,"INCLINATION":87.9239,"RA_OF_ASC_NODE":349.8568,"ARG_OF_PERICENTER":99.8316,"MEAN_ANOMALY":260.3055,"EPHEMERIS_TYPE":0,"CLASSIFICATION_TYPE":"U","NORAD_CAT_ID":55805,"ELEMENT_SET_NO":999,"REV_AT_EPOCH":12915,"BSTAR":0.00012636,"MEAN_MOTION_DOT":6.4e-7,"MEAN_MOTION_DDOT":0},{"OBJECT_NAME":"ONEWEB-0642","OBJECT_ID":"2023-029L","EPOCH":"2025-11-03T13:02:21.255648","MEAN_MOTION":13.19725756,"ECCENTRICITY":0.0002779,"INCLINATION":87.9225,"RA_OF_ASC_NODE":349.885,"ARG_OF_PERICENTER":103.3809,"MEAN_ANOMALY":256.7633,"EPHEMERIS_TYPE":0,"CLASSIFICATION_TYPE":"U","NORAD_CAT_ID":55806,"ELEMENT_SET_NO":999,"REV_AT_EPOCH":12914,"BSTAR":0.00012266,"MEAN_MOTION_DOT":6.2e-7,"MEAN_MOTION_DDOT":0},{"OBJECT_NAME":"ONEWEB-0643","OBJECT_ID":"2023-029M","EPOCH":"2025-11-03T12:44:36.201120","MEAN_MOTION":13.14505339,"ECCENTRICITY":0.0002617,"INCLINATION":87.9007,"RA_OF_ASC_NODE":334.6976,"ARG_OF_PERICENTER":94.4761,"MEAN_ANOMALY":265.6668,"EPHEMERIS_TYPE":0,"CLASSIFICATION_TYPE":"U","NORAD_CAT_ID":55807,"ELEMENT_SET_NO":999,"REV_AT_EPOCH":12974,"BSTAR":0.00092689,"MEAN_MOTION_DOT":3.56e-6,"MEAN_MOTION_DDOT":0},{"OBJECT_NAME":"ONEWEB-0644","OBJECT_ID":"2023-029N","EPOCH":"2025-11-03T12:55:31.595232","MEAN_MOTION":13.19725816,"ECCENTRICITY":0.000238,"INCLINATION":87.9232,"RA_OF_ASC_NODE":349.8951,"ARG_OF_PERICENTER":101.1718,"MEAN_ANOMALY":258.9683,"EPHEMERIS_TYPE":0,"CLASSIFICATION_TYPE":"U","NORAD_CAT_ID":55808,"ELEMENT_SET_NO":999,"REV_AT_EPOCH":12914,"BSTAR":-7.8245e-5,"MEAN_MOTION_DOT":-1.8e-7,"MEAN_MOTION_DDOT":0},{"OBJECT_NAME":"ONEWEB-0645","OBJECT_ID":"2023-029P","EPOCH":"2025-11-03T13:05:12.926400","MEAN_MOTION":13.18131016,"ECCENTRICITY":0.0002173,"INCLINATION":87.9222,"RA_OF_ASC_NODE":349.8818,"ARG_OF_PERICENTER":110.9969,"MEAN_ANOMALY":249.1395,"EPHEMERIS_TYPE":0,"CLASSIFICATION_TYPE":"U","NORAD_CAT_ID":55809,"ELEMENT_SET_NO":999,"REV_AT_EPOCH":12914,"BSTAR":3.5202e-5,"MEAN_MOTION_DOT":2.7e-7,"MEAN_MOTION_DDOT":0},{"OBJECT_NAME":"ONEWEB-0646","OBJECT_ID":"2023-029Q","EPOCH":"2025-11-02T08:45:33.127200","MEAN_MOTION":13.19722941,"ECCENTRICITY":0.0002232,"INCLINATION":87.9232,"RA_OF_ASC_NODE":350.1124,"ARG_OF_PERICENTER":99.6293,"MEAN_ANOMALY":260.5092,"EPHEMERIS_TYPE":0,"CLASSIFICATION_TYPE":"U","NORAD_CAT_ID":55810,"ELEMENT_SET_NO":999,"REV_AT_EPOCH":12897,"BSTAR":0.00026274,"MEAN_MOTION_DOT":1.18e-6,"MEAN_MOTION_DDOT":0},{"OBJECT_NAME":"ONEWEB-0648","OBJECT_ID":"2023-029R","EPOCH":"2025-11-03T19:17:23.284608","MEAN_MOTION":13.14501861,"ECCENTRICITY":0.0002621,"INCLINATION":87.8999,"RA_OF_ASC_NODE":334.6061,"ARG_OF_PERICENTER":112.3732,"MEAN_ANOMALY":247.7676,"EPHEMERIS_TYPE":0,"CLASSIFICATION_TYPE":"U","NORAD_CAT_ID":55811,"ELEMENT_SET_NO":999,"REV_AT_EPOCH":12978,"BSTAR":-0.00052408,"MEAN_MOTION_DOT":-1.82e-6,"MEAN_MOTION_DDOT":0},{"OBJECT_NAME":"ONEWEB-0649","OBJECT_ID":"2023-029S","EPOCH":"2025-11-03T12:39:36.669600","MEAN_MOTION":13.19726023,"ECCENTRICITY":0.0002252,"INCLINATION":87.9235,"RA_OF_ASC_NODE":349.8759,"ARG_OF_PERICENTER":105.9078,"MEAN_ANOMALY":254.2303,"EPHEMERIS_TYPE":0,"CLASSIFICATION_TYPE":"U","NORAD_CAT_ID":55812,"ELEMENT_SET_NO":999,"REV_AT_EPOCH":12916,"BSTAR":8.8137e-5,"MEAN_MOTION_DOT":4.8e-7,"MEAN_MOTION_DDOT":0},{"OBJECT_NAME":"ONEWEB-0650","OBJECT_ID":"2023-029T","EPOCH":"2025-11-02T09:15:08.208288","MEAN_MOTION":13.1972723,"ECCENTRICITY":0.0002077,"INCLINATION":87.9228,"RA_OF_ASC_NODE":350.1112,"ARG_OF_PERICENTER":99.1932,"MEAN_ANOMALY":260.9435,"EPHEMERIS_TYPE":0,"CLASSIFICATION_TYPE":"U","NORAD_CAT_ID":55813,"ELEMENT_SET_NO":999,"REV_AT_EPOCH":12898,"BSTAR":0.00011631,"MEAN_MOTION_DOT":6.0e-7,"MEAN_MOTION_DDOT":0},{"OBJECT_NAME":"ONEWEB-0652","OBJECT_ID":"2023-029U","EPOCH":"2025-11-02T11:46:37.009632","MEAN_MOTION":13.14504346,"ECCENTRICITY":0.000173,"INCLINATION":87.9006,"RA_OF_ASC_NODE":334.8881,"ARG_OF_PERICENTER":90.3861,"MEAN_ANOMALY":269.7467,"EPHEMERIS_TYPE":0,"CLASSIFICATION_TYPE":"U","NORAD_CAT_ID":55814,"ELEMENT_SET_NO":999,"REV_AT_EPOCH":12958,"BSTAR":-0.00048917,"MEAN_MOTION_DOT":-1.69e-6,"MEAN_MOTION_DDOT":0},{"OBJECT_NAME":"ONEWEB-0653","OBJECT_ID":"2023-029V","EPOCH":"2025-11-03T12:58:20.627328","MEAN_MOTION":13.14501869,"ECCENTRICITY":0.00017,"INCLINATION":87.9007,"RA_OF_ASC_NODE":334.6691,"ARG_OF_PERICENTER":99.2487,"MEAN_ANOMALY":260.8835,"EPHEMERIS_TYPE":0,"CLASSIFICATION_TYPE":"U","NORAD_CAT_ID":55815,"ELEMENT_SET_NO":999,"REV_AT_EPOCH":12975,"BSTAR":0.0002434,"MEAN_MOTION_DOT":1.03e-6,"MEAN_MOTION_DDOT":0},{"OBJECT_NAME":"ONEWEB-0654","OBJECT_ID":"2023-029W","EPOCH":"2025-11-02T11:16:55.598880","MEAN_MOTION":13.14504994,"ECCENTRICITY":0.000153,"INCLINATION":87.9004,"RA_OF_ASC_NODE":334.8812,"ARG_OF_PERICENTER":87.7632,"MEAN_ANOMALY":272.3673,"EPHEMERIS_TYPE":0,"CLASSIFICATION_TYPE":"U","NORAD_CAT_ID":55816,"ELEMENT_SET_NO":999,"REV_AT_EPOCH":12963,"BSTAR":0.0004932,"MEAN_MOTION_DOT":1.96e-6,"MEAN_MOTION_DDOT":0},{"OBJECT_NAME":"ONEWEB-0656","OBJECT_ID":"2023-029X","EPOCH":"2025-11-02T11:08:11.740992","MEAN_MOTION":13.20771884,"ECCENTRICITY":0.0001507,"INCLINATION":87.9195,"RA_OF_ASC_NODE":319.6432,"ARG_OF_PERICENTER":83.0897,"MEAN_ANOMALY":277.0407,"EPHEMERIS_TYPE":0,"CLASSIFICATION_TYPE":"U","NORAD_CAT_ID":55817,"ELEMENT_SET_NO":999,"REV_AT_EPOCH":13122,"BSTAR":8.0878e-5,"MEAN_MOTION_DOT":4.6e-7,"MEAN_MOTION_DDOT":0}]
